{
  "type": "FeatureCollection",
  "features": [
    {
      "type": "Feature",
      "properties": {
        "norad_id": 35583,
        "name": "COSMOS 2251 DEB",
        "group": "cosmos-2251-debris",
        "lat": 41.38836096050051,
        "lon": -142.38500733738363,
        "alt_km": 1334.9668586114994,
        "timestamp": "2025-12-18T08:58:43.811026+00:00",
        "meta_object_name": "COSMOS 2251 DEB",
        "meta_object_id": "1993-036AMA",
        "meta_epoch": "2025-12-15T08:07:13.110816",
        "meta_mean_motion": 13.55339959,
        "meta_eccentricity": 0.03853461,
        "meta_inclination": 73.9163,
        "meta_ra_of_asc_node": 207.8047,
        "meta_arg_of_pericenter": 231.6769,
        "meta_mean_anomaly": 124.9115,
        "meta_ephemeris_type": 0,
        "meta_classification_type": "U",
        "meta_norad_cat_id": 35583,
        "meta_element_set_no": 999,
        "meta_rev_at_epoch": 82447,
        "meta_bstar": 0.00076925209,
        "meta_mean_motion_dot": 8.34e-06,
        "meta_mean_motion_ddot": 0,
        "tle_line1": "1 35583U 93036AMA 25349.33834619  .00000834  00000+0  76925-3 0  9991",
        "tle_line2": "2 35583  73.9163 207.8047 0385346 231.6769 124.9115 13.55339959824476"
      },
      "geometry": {
        "type": "Point",
        "coordinates": [
          -142.38500733738363,
          41.38836096050051
        ]
      }
    },
    {
      "type": "Feature",
      "properties": {
        "norad_id": 35585,
        "name": "COSMOS 2251 DEB",
        "group": "cosmos-2251-debris",
        "lat": 41.08715310181514,
        "lon": -6.479625128235002,
        "alt_km": 1179.3356238391352,
        "timestamp": "2025-12-18T08:58:43.811036+00:00",
        "meta_object_name": "COSMOS 2251 DEB",
        "meta_object_id": "1993-036AMC",
        "meta_epoch": "2025-12-17T08:39:54.158400",
        "meta_mean_motion": 13.7526174,
        "meta_eccentricity": 0.03105215,
        "meta_inclination": 73.9723,
        "meta_ra_of_asc_node": 340.6956,
        "meta_arg_of_pericenter": 252.0353,
        "meta_mean_anomaly": 175.758,
        "meta_ephemeris_type": 0,
        "meta_classification_type": "U",
        "meta_norad_cat_id": 35585,
        "meta_element_set_no": 999,
        "meta_rev_at_epoch": 64127,
        "meta_bstar": 0.0008460608,
        "meta_mean_motion_dot": 1.128e-05,
        "meta_mean_motion_ddot": 0,
        "tle_line1": "1 35585U 93036AMC 25351.36104350  .00001128  00000+0  84606-3 0  9993",
        "tle_line2": "2 35585  73.9723 340.6956 0310521 252.0353 175.7580 13.75261740641273"
      },
      "geometry": {
        "type": "Point",
        "coordinates": [
          -6.479625128235002,
          41.08715310181514
        ]
      }
    },
    {
      "type": "Feature",
      "properties": {
        "norad_id": 35586,
        "name": "COSMOS 2251 DEB",
        "group": "cosmos-2251-debris",
        "lat": 58.86067273388025,
        "lon": 85.14143435078955,
        "alt_km": 860.1135219933649,
        "timestamp": "2025-12-18T08:58:43.811046+00:00",
        "meta_object_name": "COSMOS 2251 DEB",
        "meta_object_id": "1993-036AMD",
        "meta_epoch": "2025-12-16T14:39:02.048832",
        "meta_mean_motion": 13.52087602,
        "meta_eccentricity": 0.04045249,
        "meta_inclination": 74.0205,
        "meta_ra_of_asc_node": 296.2763,
        "meta_arg_of_pericenter": 170.7772,
        "meta_mean_anomaly": 8.2302,
        "meta_ephemeris_type": 0,
        "meta_classification_type": "U",
        "meta_norad_cat_id": 35586,
        "meta_element_set_no": 999,
        "meta_rev_at_epoch": 60434,
        "meta_bstar": 0.00026866274,
        "meta_mean_motion_dot": 2.76e-06,
        "meta_mean_motion_ddot": 0,
        "tle_line1": "1 35586U 93036AMD 25350.61044038  .00000276  00000+0  26866-3 0  9994",
        "tle_line2": "2 35586  74.0205 296.2763 0404524 170.7772   8.2302 13.52087602604348"
      },
      "geometry": {
        "type": "Point",
        "coordinates": [
          85.14143435078955,
          58.86067273388025
        ]
      }
    },
    {
      "type": "Feature",
      "properties": {
        "norad_id": 35587,
        "name": "COSMOS 2251 DEB",
        "group": "cosmos-2251-debris",
        "lat": -64.51887339424476,
        "lon": -95.54358323562079,
        "alt_km": 593.6551291118894,
        "timestamp": "2025-12-18T08:58:43.811056+00:00",
        "meta_object_name": "COSMOS 2251 DEB",
        "meta_object_id": "1993-036AME",
        "meta_epoch": "2025-12-17T20:25:21.555552",
        "meta_mean_motion": 14.7153897,
        "meta_eccentricity": 0.01024691,
        "meta_inclination": 74.0054,
        "meta_ra_of_asc_node": 48.4708,
        "meta_arg_of_pericenter": 235.0321,
        "meta_mean_anomaly": 124.1197,
        "meta_ephemeris_type": 0,
        "meta_classification_type": "U",
        "meta_norad_cat_id": 35587,
        "meta_element_set_no": 999,
        "meta_rev_at_epoch": 66421,
        "meta_bstar": 0.00020868501,
        "meta_mean_motion_dot": 1.37e-05,
        "meta_mean_motion_ddot": 0,
        "tle_line1": "1 35587U 93036AME 25351.85094393  .00001370  00000+0  20869-3 0  9994",
        "tle_line2": "2 35587  74.0054  48.4708 0102469 235.0321 124.1197 14.71538970664218"
      },
      "geometry": {
        "type": "Point",
        "coordinates": [
          -95.54358323562079,
          -64.51887339424476
        ]
      }
    },
    {
      "type": "Feature",
      "properties": {
        "norad_id": 35593,
        "name": "COSMOS 2251 DEB",
        "group": "cosmos-2251-debris",
        "lat": 10.007144328398194,
        "lon": 95.42369442066392,
        "alt_km": 837.7110778772721,
        "timestamp": "2025-12-18T08:58:43.811066+00:00",
        "meta_object_name": "COSMOS 2251 DEB",
        "meta_object_id": "1993-036AML",
        "meta_epoch": "2025-12-16T02:16:58.534752",
        "meta_mean_motion": 14.25610716,
        "meta_eccentricity": 0.01051822,
        "meta_inclination": 74.086,
        "meta_ra_of_asc_node": 282.4096,
        "meta_arg_of_pericenter": 288.161,
        "meta_mean_anomaly": 70.8107,
        "meta_ephemeris_type": 0,
        "meta_classification_type": "U",
        "meta_norad_cat_id": 35593,
        "meta_element_set_no": 999,
        "meta_rev_at_epoch": 85113,
        "meta_bstar": 0.00056549388,
        "meta_mean_motion_dot": 1.393e-05,
        "meta_mean_motion_ddot": 0,
        "tle_line1": "1 35593U 93036AML 25350.09512193  .00001393  00000+0  56549-3 0  9998",
        "tle_line2": "2 35593  74.0860 282.4096 0105182 288.1610  70.8107 14.25610716851130"
      },
      "geometry": {
        "type": "Point",
        "coordinates": [
          95.42369442066392,
          10.007144328398194
        ]
      }
    },
    {
      "type": "Feature",
      "properties": {
        "norad_id": 35594,
        "name": "COSMOS 2251 DEB",
        "group": "cosmos-2251-debris",
        "lat": -57.20248670201058,
        "lon": 68.34100722694924,
        "alt_km": 611.5179052231133,
        "timestamp": "2025-12-18T08:58:43.811076+00:00",
        "meta_object_name": "COSMOS 2251 DEB",
        "meta_object_id": "1993-036AMM",
        "meta_epoch": "2025-12-17T17:07:08.312160",
        "meta_mean_motion": 14.88085261,
        "meta_eccentricity": 0.00295539,
        "meta_inclination": 73.8085,
        "meta_ra_of_asc_node": 96.479,
        "meta_arg_of_pericenter": 207.6965,
        "meta_mean_anomaly": 152.2642,
        "meta_ephemeris_type": 0,
        "meta_classification_type": "U",
        "meta_norad_cat_id": 35594,
        "meta_element_set_no": 999,
        "meta_rev_at_epoch": 88259,
        "meta_bstar": 0.0013790172,
        "meta_mean_motion_dot": 0.00012773,
        "meta_mean_motion_ddot": 0,
        "tle_line1": "1 35594U 93036AMM 25351.71329065  .00012773  00000+0  13790-2 0  9997",
        "tle_line2": "2 35594  73.8085  96.4790 0029553 207.6965 152.2642 14.88085261882590"
      },
      "geometry": {
        "type": "Point",
        "coordinates": [
          68.34100722694924,
          -57.20248670201058
        ]
      }
    },
    {
      "type": "Feature",
      "properties": {
        "norad_id": 35602,
        "name": "COSMOS 2251 DEB",
        "group": "cosmos-2251-debris",
        "lat": -68.12969426550455,
        "lon": 124.43397535234654,
        "alt_km": 427.8709148523085,
        "timestamp": "2025-12-18T08:58:43.811086+00:00",
        "meta_object_name": "COSMOS 2251 DEB",
        "meta_object_id": "1993-036AMV",
        "meta_epoch": "2025-12-16T12:05:04.490880",
        "meta_mean_motion": 15.35217708,
        "meta_eccentricity": 0.00894658,
        "meta_inclination": 73.9931,
        "meta_ra_of_asc_node": 174.1162,
        "meta_arg_of_pericenter": 239.0615,
        "meta_mean_anomaly": 151.2508,
        "meta_ephemeris_type": 0,
        "meta_classification_type": "U",
        "meta_norad_cat_id": 35602,
        "meta_element_set_no": 999,
        "meta_rev_at_epoch": 90149,
        "meta_bstar": 0.00038226129,
        "meta_mean_motion_dot": 0.00014891,
        "meta_mean_motion_ddot": 0,
        "tle_line1": "1 35602U 93036AMV 25350.50352420  .00014891  00000+0  38226-3 0  9999",
        "tle_line2": "2 35602  73.9931 174.1162 0089465 239.0615 151.2508 15.35217708901494"
      },
      "geometry": {
        "type": "Point",
        "coordinates": [
          124.43397535234654,
          -68.12969426550455
        ]
      }
    }
  ]
}